<?xml version="1.0" encoding="UTF-8"?>

<q:quakeml xmlns:q="http://quakeml.org/xmlns/quakeml/1.2" xmlns="http://quakeml.org/xmlns/bed/1.2" xmlns:catalog="http://anss.org/xmlns/catalog/0.1">
 <eventParameters publicID="quakeml:uw.anss.org/Event/UW/61930961#168609023501">
  <creationInfo>
   <agencyID>UW</agencyID>
   <creationTime>2023-06-06T22:23:55.01</creationTime>
  </creationInfo>
  <event publicID="quakeml:uw.anss.org/Event/UW/61930961" catalog:datasource="uw" catalog:dataid="uw61930961" catalog:eventsource="uw" catalog:eventid="61930961">
   <preferredOriginID>quakeml:uw.anss.org/Origin/UW/3229318</preferredOriginID>
   <preferredMagnitudeID>quakeml:uw.anss.org/Netmag/UW/3212448</preferredMagnitudeID>
   <creationInfo>
    <agencyID>UW</agencyID>
    <creationTime>2023-06-06T22:23:30.00</creationTime>
    <version>4</version>
   </creationInfo>
   <type>earthquake</type>
   <origin publicID="quakeml:uw.anss.org/Origin/UW/3229318" catalog:datasource="uw" catalog:dataid="uw61930961" catalog:eventsource="uw" catalog:eventid="61930961">
    <time>
     <value>2023-06-06T21:35:15.24</value>
    </time>
    <timeFixed>0</timeFixed>
    <latitude>
     <value>45.367</value>
    </latitude>
    <longitude>
     <value>-121.70383333333334</value>
    </longitude>
    <epicenterFixed>0</epicenterFixed>
    <depth>
     <value>1350</value>
     <uncertainty>120</uncertainty>
    </depth>
    <depthType>from location</depthType>
    <type>hypocenter</type>
    <evaluationMode>manual</evaluationMode>
    <evaluationStatus>final</evaluationStatus>
    <quality>
     <associatedPhaseCount>39</associatedPhaseCount>
     <usedPhaseCount>36</usedPhaseCount>
     <associatedStationCount>28</associatedStationCount>
     <usedStationCount>28</usedStationCount>
     <standardError>0.13</standardError>
     <azimuthalGap>33</azimuthalGap>
     <secondaryAzimuthalGap>450</secondaryAzimuthalGap>
     <minimumDistance>8.512e-03</minimumDistance>
     <medianDistance>4.487e-01</medianDistance>
     <maximumDistance>7.876e-01</maximumDistance>
    </quality>
    <creationInfo>
     <agencyID>UW</agencyID>
     <creationTime>2023-06-06T22:12:52.00</creationTime>
    </creationInfo>
    <originUncertainty>
     <confidenceEllipsoid>
      <semiMajorAxisLength>456</semiMajorAxisLength>
      <semiMinorAxisLength>360</semiMinorAxisLength>
      <semiIntermediateAxisLength>408</semiIntermediateAxisLength>
      <majorAxisPlunge>37</majorAxisPlunge>
      <majorAxisAzimuth>222</majorAxisAzimuth>
      <majorAxisRotation>275</majorAxisRotation>
     </confidenceEllipsoid>
     <preferredDescription>confidence ellipsoid</preferredDescription>
     <confidenceLevel>95</confidenceLevel>
     <horizontalUncertainty>170</horizontalUncertainty>
    </originUncertainty>
    <methodID>smi:uw.anss.org/origin/HYP2000</methodID>
    <arrival publicID="quakeml:uw.anss.org/AssocArO/UW/16439918">
     <pickID>quakeml:uw.anss.org/Arrival/UW/16439918</pickID>
     <phase>S</phase>
     <azimuth>293.6002682165358</azimuth>
     <distance>3.052e-02</distance>
     <timeResidual>-0.15</timeResidual>
     <timeCorrection>0</timeCorrection>
     <timeWeight>0.09</timeWeight>
     <takeoffAngle>
      <value>126</value>
     </takeoffAngle>
     <creationInfo>
      <agencyID>UW</agencyID>
      <creationTime>2023-06-06T22:23:29.00</creationTime>
     </creationInfo>
    </arrival>
    <arrival publicID="quakeml:uw.anss.org/AssocArO/UW/16439923">
     <pickID>quakeml:uw.anss.org/Arrival/UW/16439923</pickID>
     <phase>S</phase>
     <azimuth>188.34177191944897</azimuth>
     <distance>3.162e-02</distance>
     <timeResidual>0.09</timeResidual>
     <timeCorrection>0</timeCorrection>
     <timeWeight>0.14</timeWeight>
     <takeoffAngle>
      <value>125</value>
     </takeoffAngle>
     <creationInfo>
      <agencyID>UW</agencyID>
      <creationTime>2023-06-06T22:23:29.00</creationTime>
     </creationInfo>
    </arrival>
    <arrival publicID="quakeml:uw.anss.org/AssocArO/UW/16439943">
     <pickID>quakeml:uw.anss.org/Arrival/UW/16439943</pickID>
     <phase>S</phase>
     <azimuth>114.48671462005126</azimuth>
     <distance>3.004e-01</distance>
     <timeResidual>0.24</timeResidual>
     <timeCorrection>0</timeCorrection>
     <timeWeight>0.09</timeWeight>
     <takeoffAngle>
      <value>51</value>
     </takeoffAngle>
     <creationInfo>
      <agencyID>UW</agencyID>
      <creationTime>2023-06-06T22:23:29.00</creationTime>
     </creationInfo>
    </arrival>
    <arrival publicID="quakeml:uw.anss.org/AssocArO/UW/16439998">
     <pickID>quakeml:uw.anss.org/Arrival/UW/16439998</pickID>
     <phase>P</phase>
     <azimuth>188.0814257934074</azimuth>
     <distance>8.512e-03</distance>
     <timeResidual>0.16</timeResidual>
     <timeCorrection>0</timeCorrection>
     <timeWeight>0.14</timeWeight>
     <takeoffAngle>
      <value>161</value>
     </takeoffAngle>
     <creationInfo>
      <agencyID>UW</agencyID>
      <creationTime>2023-06-06T22:23:29.00</creationTime>
     </creationInfo>
    </arrival>
    <arrival publicID="quakeml:uw.anss.org/AssocArO/UW/16440003">
     <pickID>quakeml:uw.anss.org/Arrival/UW/16440003</pickID>
     <phase>P</phase>
     <azimuth>293.6002682165358</azimuth>
     <distance>3.052e-02</distance>
     <timeResidual>-0.1</timeResidual>
     <timeCorrection>0</timeCorrection>
     <timeWeight>0.19</timeWeight>
     <takeoffAngle>
      <value>126</value>
     </takeoffAngle>
     <creationInfo>
      <agencyID>UW</agencyID>
      <creationTime>2023-06-06T22:23:29.00</creationTime>
     </creationInfo>
    </arrival>
    <arrival publicID="quakeml:uw.anss.org/AssocArO/UW/16440008">
     <pickID>quakeml:uw.anss.org/Arrival/UW/16440008</pickID>
     <phase>P</phase>
     <azimuth>188.34177191944897</azimuth>
     <distance>3.162e-02</distance>
     <timeResidual>0.02</timeResidual>
     <timeCorrection>0</timeCorrection>
     <timeWeight>0.14</timeWeight>
     <takeoffAngle>
      <value>125</value>
     </takeoffAngle>
     <creationInfo>
      <agencyID>UW</agencyID>
      <creationTime>2023-06-06T22:23:29.00</creationTime>
     </creationInfo>
    </arrival>
    <arrival publicID="quakeml:uw.anss.org/AssocArO/UW/16440013">
     <pickID>quakeml:uw.anss.org/Arrival/UW/16440013</pickID>
     <phase>P</phase>
     <azimuth>100.51304564611098</azimuth>
     <distance>4.061e-02</distance>
     <timeResidual>-0.1</timeResidual>
     <timeCorrection>0</timeCorrection>
     <timeWeight>0.19</timeWeight>
     <takeoffAngle>
      <value>118</value>
     </takeoffAngle>
     <creationInfo>
      <agencyID>UW</agencyID>
      <creationTime>2023-06-06T22:23:29.00</creationTime>
     </creationInfo>
    </arrival>
    <arrival publicID="quakeml:uw.anss.org/AssocArO/UW/16440018">
     <pickID>quakeml:uw.anss.org/Arrival/UW/16440018</pickID>
     <phase>S</phase>
     <azimuth>100.51304564611098</azimuth>
     <distance>4.061e-02</distance>
     <timeResidual>0.37</timeResidual>
     <timeCorrection>0</timeCorrection>
     <timeWeight>0.08</timeWeight>
     <takeoffAngle>
      <value>118</value>
     </takeoffAngle>
     <creationInfo>
      <agencyID>UW</agencyID>
      <creationTime>2023-06-06T22:23:29.00</creationTime>
     </creationInfo>
    </arrival>
    <arrival publicID="quakeml:uw.anss.org/AssocArO/UW/16440023">
     <pickID>quakeml:uw.anss.org/Arrival/UW/16440023</pickID>
     <phase>P</phase>
     <azimuth>140.2516173116568</azimuth>
     <distance>5.825e-02</distance>
     <timeResidual>-0.14</timeResidual>
     <timeCorrection>0</timeCorrection>
     <timeWeight>0.19</timeWeight>
     <takeoffAngle>
      <value>51</value>
     </takeoffAngle>
     <creationInfo>
      <agencyID>UW</agencyID>
      <creationTime>2023-06-06T22:23:29.00</creationTime>
     </creationInfo>
    </arrival>
    <arrival publicID="quakeml:uw.anss.org/AssocArO/UW/16440028">
     <pickID>quakeml:uw.anss.org/Arrival/UW/16440028</pickID>
     <phase>S</phase>
     <azimuth>140.2516173116568</azimuth>
     <distance>5.825e-02</distance>
     <timeResidual>0</timeResidual>
     <timeCorrection>0</timeCorrection>
     <timeWeight>0.14</timeWeight>
     <takeoffAngle>
      <value>51</value>
     </takeoffAngle>
     <creationInfo>
      <agencyID>UW</agencyID>
      <creationTime>2023-06-06T22:23:29.00</creationTime>
     </creationInfo>
    </arrival>
    <arrival publicID="quakeml:uw.anss.org/AssocArO/UW/16440033">
     <pickID>quakeml:uw.anss.org/Arrival/UW/16440033</pickID>
     <phase>P</phase>
     <azimuth>9.71817872863511</azimuth>
     <distance>9.759e-02</distance>
     <timeResidual>0</timeResidual>
     <timeCorrection>0</timeCorrection>
     <timeWeight>0.19</timeWeight>
     <takeoffAngle>
      <value>51</value>
     </takeoffAngle>
     <creationInfo>
      <agencyID>UW</agencyID>
      <creationTime>2023-06-06T22:23:29.00</creationTime>
     </creationInfo>
    </arrival>
    <arrival publicID="quakeml:uw.anss.org/AssocArO/UW/16440038">
     <pickID>quakeml:uw.anss.org/Arrival/UW/16440038</pickID>
     <phase>P</phase>
     <azimuth>218.6881112308431</azimuth>
     <distance>9.874e-02</distance>
     <timeResidual>-0.1</timeResidual>
     <timeCorrection>0</timeCorrection>
     <timeWeight>0.19</timeWeight>
     <takeoffAngle>
      <value>51</value>
     </takeoffAngle>
     <creationInfo>
      <agencyID>UW</agencyID>
      <creationTime>2023-06-06T22:23:29.00</creationTime>
     </creationInfo>
    </arrival>
    <arrival publicID="quakeml:uw.anss.org/AssocArO/UW/16440043">
     <pickID>quakeml:uw.anss.org/Arrival/UW/16440043</pickID>
     <phase>S</phase>
     <azimuth>218.6881112308431</azimuth>
     <distance>9.874e-02</distance>
     <timeResidual>0.05</timeResidual>
     <timeCorrection>0</timeCorrection>
     <timeWeight>0.14</timeWeight>
     <takeoffAngle>
      <value>51</value>
     </takeoffAngle>
     <creationInfo>
      <agencyID>UW</agencyID>
      <creationTime>2023-06-06T22:23:29.00</creationTime>
     </creationInfo>
    </arrival>
    <arrival publicID="quakeml:uw.anss.org/AssocArO/UW/16440048">
     <pickID>quakeml:uw.anss.org/Arrival/UW/16440048</pickID>
     <phase>P</phase>
     <azimuth>313.2141110690103</azimuth>
     <distance>9.990e-02</distance>
     <timeResidual>-0.03</timeResidual>
     <timeCorrection>0</timeCorrection>
     <timeWeight>0.19</timeWeight>
     <takeoffAngle>
      <value>51</value>
     </takeoffAngle>
     <creationInfo>
      <agencyID>UW</agencyID>
      <creationTime>2023-06-06T22:23:29.00</creationTime>
     </creationInfo>
    </arrival>
    <arrival publicID="quakeml:uw.anss.org/AssocArO/UW/16440053">
     <pickID>quakeml:uw.anss.org/Arrival/UW/16440053</pickID>
     <phase>P</phase>
     <azimuth>51.53753182173199</azimuth>
     <distance>1.571e-01</distance>
     <timeResidual>-0.07</timeResidual>
     <timeCorrection>0</timeCorrection>
     <timeWeight>0.14</timeWeight>
     <takeoffAngle>
      <value>51</value>
     </takeoffAngle>
     <creationInfo>
      <agencyID>UW</agencyID>
      <creationTime>2023-06-06T22:23:29.00</creationTime>
     </creationInfo>
    </arrival>
    <arrival publicID="quakeml:uw.anss.org/AssocArO/UW/16440058">
     <pickID>quakeml:uw.anss.org/Arrival/UW/16440058</pickID>
     <phase>S</phase>
     <azimuth>51.53753182173199</azimuth>
     <distance>1.571e-01</distance>
     <timeResidual>-0.05</timeResidual>
     <timeCorrection>0</timeCorrection>
     <timeWeight>0.14</timeWeight>
     <takeoffAngle>
      <value>51</value>
     </takeoffAngle>
     <creationInfo>
      <agencyID>UW</agencyID>
      <creationTime>2023-06-06T22:23:29.00</creationTime>
     </creationInfo>
    </arrival>
    <arrival publicID="quakeml:uw.anss.org/AssocArO/UW/16440063">
     <pickID>quakeml:uw.anss.org/Arrival/UW/16440063</pickID>
     <phase>P</phase>
     <azimuth>106.27456788885308</azimuth>
     <distance>1.745e-01</distance>
     <timeResidual>-0.1</timeResidual>
     <timeCorrection>0</timeCorrection>
     <timeWeight>0.14</timeWeight>
     <takeoffAngle>
      <value>51</value>
     </takeoffAngle>
     <creationInfo>
      <agencyID>UW</agencyID>
      <creationTime>2023-06-06T22:23:29.00</creationTime>
     </creationInfo>
    </arrival>
    <arrival publicID="quakeml:uw.anss.org/AssocArO/UW/16440068">
     <pickID>quakeml:uw.anss.org/Arrival/UW/16440068</pickID>
     <phase>P</phase>
     <azimuth>114.48671462005126</azimuth>
     <distance>3.004e-01</distance>
     <timeResidual>0.45</timeResidual>
     <timeCorrection>0</timeCorrection>
     <timeWeight>0.02</timeWeight>
     <takeoffAngle>
      <value>51</value>
     </takeoffAngle>
     <creationInfo>
      <agencyID>UW</agencyID>
      <creationTime>2023-06-06T22:23:29.00</creationTime>
     </creationInfo>
    </arrival>
    <arrival publicID="quakeml:uw.anss.org/AssocArO/UW/16440073">
     <pickID>quakeml:uw.anss.org/Arrival/UW/16440073</pickID>
     <phase>P</phase>
     <azimuth>165.0671694374355</azimuth>
     <distance>3.176e-01</distance>
     <timeResidual>0.44</timeResidual>
     <timeCorrection>0</timeCorrection>
     <timeWeight>0.03</timeWeight>
     <takeoffAngle>
      <value>51</value>
     </takeoffAngle>
     <creationInfo>
      <agencyID>UW</agencyID>
      <creationTime>2023-06-06T22:23:29.00</creationTime>
     </creationInfo>
    </arrival>
    <arrival publicID="quakeml:uw.anss.org/AssocArO/UW/16440078">
     <pickID>quakeml:uw.anss.org/Arrival/UW/16440078</pickID>
     <phase>P</phase>
     <azimuth>338.5812462063552</azimuth>
     <distance>3.324e-01</distance>
     <timeResidual>0.22</timeResidual>
     <timeCorrection>0</timeCorrection>
     <timeWeight>0.14</timeWeight>
     <takeoffAngle>
      <value>51</value>
     </takeoffAngle>
     <creationInfo>
      <agencyID>UW</agencyID>
      <creationTime>2023-06-06T22:23:29.00</creationTime>
     </creationInfo>
    </arrival>
    <arrival publicID="quakeml:uw.anss.org/AssocArO/UW/16440083">
     <pickID>quakeml:uw.anss.org/Arrival/UW/16440083</pickID>
     <phase>P</phase>
     <azimuth>2.393307456918137</azimuth>
     <distance>3.693e-01</distance>
     <timeResidual>0.21</timeResidual>
     <timeCorrection>0</timeCorrection>
     <timeWeight>0.09</timeWeight>
     <takeoffAngle>
      <value>51</value>
     </takeoffAngle>
     <creationInfo>
      <agencyID>UW</agencyID>
      <creationTime>2023-06-06T22:23:29.00</creationTime>
     </creationInfo>
    </arrival>
    <arrival publicID="quakeml:uw.anss.org/AssocArO/UW/16440088">
     <pickID>quakeml:uw.anss.org/Arrival/UW/16440088</pickID>
     <phase>P</phase>
     <azimuth>282.14035858071816</azimuth>
     <distance>5.280e-01</distance>
     <timeResidual>0.11</timeResidual>
     <timeCorrection>0</timeCorrection>
     <timeWeight>0.13</timeWeight>
     <takeoffAngle>
      <value>47</value>
     </takeoffAngle>
     <creationInfo>
      <agencyID>UW</agencyID>
      <creationTime>2023-06-06T22:23:29.00</creationTime>
     </creationInfo>
    </arrival>
    <arrival publicID="quakeml:uw.anss.org/AssocArO/UW/16440093">
     <pickID>quakeml:uw.anss.org/Arrival/UW/16440093</pickID>
     <phase>P</phase>
     <azimuth>18.1481913188519</azimuth>
     <distance>5.458e-01</distance>
     <timeResidual>0.25</timeResidual>
     <timeCorrection>0</timeCorrection>
     <timeWeight>0.09</timeWeight>
     <takeoffAngle>
      <value>47</value>
     </takeoffAngle>
     <creationInfo>
      <agencyID>UW</agencyID>
      <creationTime>2023-06-06T22:23:29.00</creationTime>
     </creationInfo>
    </arrival>
    <arrival publicID="quakeml:uw.anss.org/AssocArO/UW/16440098">
     <pickID>quakeml:uw.anss.org/Arrival/UW/16440098</pickID>
     <phase>P</phase>
     <azimuth>253.80672547434915</azimuth>
     <distance>5.700e-01</distance>
     <timeResidual>0.21</timeResidual>
     <timeCorrection>0</timeCorrection>
     <timeWeight>0.12</timeWeight>
     <takeoffAngle>
      <value>47</value>
     </takeoffAngle>
     <creationInfo>
      <agencyID>UW</agencyID>
      <creationTime>2023-06-06T22:23:29.00</creationTime>
     </creationInfo>
    </arrival>
    <arrival publicID="quakeml:uw.anss.org/AssocArO/UW/16440103">
     <pickID>quakeml:uw.anss.org/Arrival/UW/16440103</pickID>
     <phase>P</phase>
     <azimuth>127.0906620929652</azimuth>
     <distance>6.349e-01</distance>
     <timeResidual>-0.12</timeResidual>
     <timeCorrection>0</timeCorrection>
     <timeWeight>0.10</timeWeight>
     <takeoffAngle>
      <value>47</value>
     </takeoffAngle>
     <creationInfo>
      <agencyID>UW</agencyID>
      <creationTime>2023-06-06T22:23:29.00</creationTime>
     </creationInfo>
    </arrival>
    <arrival publicID="quakeml:uw.anss.org/AssocArO/UW/16440108">
     <pickID>quakeml:uw.anss.org/Arrival/UW/16440108</pickID>
     <phase>P</phase>
     <azimuth>80.62726234532676</azimuth>
     <distance>6.860e-01</distance>
     <timeResidual>0.36</timeResidual>
     <timeCorrection>0</timeCorrection>
     <timeWeight>0.05</timeWeight>
     <takeoffAngle>
      <value>47</value>
     </takeoffAngle>
     <creationInfo>
      <agencyID>UW</agencyID>
      <creationTime>2023-06-06T22:23:29.00</creationTime>
     </creationInfo>
    </arrival>
    <arrival publicID="quakeml:uw.anss.org/AssocArO/UW/16440113">
     <pickID>quakeml:uw.anss.org/Arrival/UW/16440113</pickID>
     <phase>P</phase>
     <azimuth>246.44703574683143</azimuth>
     <distance>7.454e-01</distance>
     <timeResidual>-0.2</timeResidual>
     <timeCorrection>0</timeCorrection>
     <timeWeight>0.03</timeWeight>
     <takeoffAngle>
      <value>47</value>
     </takeoffAngle>
     <creationInfo>
      <agencyID>UW</agencyID>
      <creationTime>2023-06-06T22:23:29.00</creationTime>
     </creationInfo>
    </arrival>
    <arrival publicID="quakeml:uw.anss.org/AssocArO/UW/16440118">
     <pickID>quakeml:uw.anss.org/Arrival/UW/16440118</pickID>
     <phase>S</phase>
     <azimuth>246.44703574683143</azimuth>
     <distance>7.454e-01</distance>
     <timeResidual>-0.77</timeResidual>
     <timeCorrection>0</timeCorrection>
     <timeWeight>0.00</timeWeight>
     <takeoffAngle>
      <value>47</value>
     </takeoffAngle>
     <creationInfo>
      <agencyID>UW</agencyID>
      <creationTime>2023-06-06T22:23:29.00</creationTime>
     </creationInfo>
    </arrival>
    <arrival publicID="quakeml:uw.anss.org/AssocArO/UW/16440123">
     <pickID>quakeml:uw.anss.org/Arrival/UW/16440123</pickID>
     <phase>P</phase>
     <azimuth>331.80976916655607</azimuth>
     <distance>7.489e-01</distance>
     <timeResidual>-0.36</timeResidual>
     <timeCorrection>0</timeCorrection>
     <timeWeight>0.05</timeWeight>
     <takeoffAngle>
      <value>47</value>
     </takeoffAngle>
     <creationInfo>
      <agencyID>UW</agencyID>
      <creationTime>2023-06-06T22:23:29.00</creationTime>
     </creationInfo>
    </arrival>
    <arrival publicID="quakeml:uw.anss.org/AssocArO/UW/16440128">
     <pickID>quakeml:uw.anss.org/Arrival/UW/16440128</pickID>
     <phase>S</phase>
     <azimuth>318.7650128878022</azimuth>
     <distance>7.561e-01</distance>
     <timeResidual>-0.7</timeResidual>
     <timeCorrection>0</timeCorrection>
     <timeWeight>0.00</timeWeight>
     <takeoffAngle>
      <value>47</value>
     </takeoffAngle>
     <creationInfo>
      <agencyID>UW</agencyID>
      <creationTime>2023-06-06T22:23:29.00</creationTime>
     </creationInfo>
    </arrival>
    <arrival publicID="quakeml:uw.anss.org/AssocArO/UW/16440133">
     <pickID>quakeml:uw.anss.org/Arrival/UW/16440133</pickID>
     <phase>P</phase>
     <azimuth>318.7650128878022</azimuth>
     <distance>7.561e-01</distance>
     <timeResidual>-0.27</timeResidual>
     <timeCorrection>0</timeCorrection>
     <timeWeight>0.05</timeWeight>
     <takeoffAngle>
      <value>47</value>
     </takeoffAngle>
     <creationInfo>
      <agencyID>UW</agencyID>
      <creationTime>2023-06-06T22:23:29.00</creationTime>
     </creationInfo>
    </arrival>
